KUIPER-00071            
1 64818U 25151C   25224.75002315 -.00436547  00000+0 -17701-1 0  9996
2 64818  51.8811 155.4010 0003318 235.0171  67.1813 15.26059684  3750
KUIPER-00072            
1 64819U 25151D   25223.23850432  .00063582  00000+0  17991-2 0  9995
2 64819  51.8832 162.4310 0006052 247.1520 112.8828 15.35689118  3985
KUIPER-00073            
1 64820U 25151E   25224.75002315 -.00888907  00000+0 -35124-1 0  9999
2 64820  51.8817 155.4296 0006544 246.9352  69.8857 15.27783948  4296
KUIPER-00074            
1 64821U 25151F   25224.47212393  .00027847  00000+0  79635-3 0  9991
2 64821  51.8786 156.4468 0004962 245.8833 114.1634 15.35751283  4178
KUIPER-00075            
1 64822U 25151G   25224.75002315  .00062824  00000+0  17287-2 0  9992
2 64822  51.8795 155.0847 0004675 234.2929 237.6155 15.36571674  4055
KUIPER-00076            
1 64823U 25151H   25224.21389434  .00027913  00000+0  80219-3 0  9990
2 64823  51.8772 157.7152 0005038 237.0357 123.0144 15.35595222  4138
KUIPER-00077            
1 64824U 25151J   25223.24009470  .00040663  00000+0  11633-2 0  9992
2 64824  51.8795 162.4477 0005811 247.3079 112.7293 15.35547393  3978
KUIPER-00078            
1 64825U 25151K   25224.21576534  .00043182  00000+0  12327-2 0  9991
2 64825  51.8791 157.7324 0004916 253.2970 106.7476 15.35591458  4130
